ONEWEB-0709             
1 55172U 23004AJ  25175.75397805  .00000489  00000+0  13443-2 0  9990
2 55172  87.8839  92.3417 0002880  75.4577 284.6871 13.11416503119039
ONEWEB-0710             
1 55173U 23004AK  25175.16470917  .00000021  00000+0  19760-4 0  9994
2 55173  87.9061  77.1608 0001826  72.5199 287.6132 13.17646481120433
ONEWEB-0711             
1 55174U 23004AL  25175.49624702 -.00000357  00000+0 -10420-2 0  9990
2 55174  87.8846  92.3604 0001632  52.8842 307.2435 13.11417731118957
ONEWEB-0713             
1 55175U 23004AM  25175.74380073  .00000272  00000+0  73130-3 0  9991
2 55175  87.8844  92.3191 0001791  69.1380 290.9939 13.11417786118970
ONEWEB-0715             
1 55176U 23004AN  25175.73871450  .00000039  00000+0  73497-4 0  9993
2 55176  87.8838  92.3204 0002271  72.3818 287.7557 13.11418071119020
ONEWEB-0716             
1 55177U 23004AP  25175.46172293  .00000045  00000+0  82311-4 0  9995
2 55177  87.9065  77.1012 0001904  85.0292 275.1057 13.17647846120478
ONEWEB-0717             
1 55178U 23004AQ  25175.74859334  .00000044  00000+0  80746-4 0  9994
2 55178  87.9065  77.0028 0001813  52.2460 307.8835 13.17650684120568
ONEWEB-0719             
1 55179U 23004AR  25175.68278674  .00000008  00000+0 -13418-4 0  9993
2 55179  87.9066  77.0001 0001740  81.7538 278.3791 13.17651488120503
ONEWEB-0530             
1 55796U 23029A   25175.51839055  .00000043  00000+0  73480-4 0  9996
2 55796  87.9264 345.7210 0001397  83.0057 277.1235 13.20770637113935
ONEWEB-0534             
1 55797U 23029B   25174.74820139  .00000029  00000+0  38485-4 0  9994
2 55797  87.9264 345.8819 0001798  96.1247 264.0092 13.20772447113839
ONEWEB-0556             
1 55798U 23029C   25175.51209301  .00000058  00000+0  11024-3 0  9994
2 55798  87.9265 345.7222 0001314 116.9523 243.1745 13.20770763113933
ONEWEB-0562             
1 55799U 23029D   25173.45401920 -.00000020  00000+0 -81003-4 0  9993
2 55799  87.9263 346.1244 0000905  83.5286 276.5950 13.20772976113667
ONEWEB-0563             
1 55800U 23029E   25175.87193013  .00000113  00000+0  24644-3 0  9993
2 55800  87.9266 345.6584 0001956 101.8204 258.3149 13.20772647114658
ONEWEB-0564             
1 55801U 23029F   25175.48682499  .00000090  00000+0  18862-3 0  9991
2 55801  87.9270 345.7244 0001433  88.8218 271.3079 13.20772976113939
ONEWEB-0638             
1 55802U 23029G   25175.56336772  .00000119  00000+0  28688-3 0  9990
2 55802  87.9034   0.9166 0001413 101.4660 258.6629 13.14502981112413
ONEWEB-0639             
1 55803U 23029H   25175.55570841  .00000010  00000+0 -63143-5 0  9995
2 55803  87.9216  16.0801 0002976 102.8881 257.2584 13.19728413111739
ONEWEB-0640             
1 55804U 23029J   25175.57287298  .00000259  00000+0  66386-3 0  9993
2 55804  87.9031   0.9024 0001768 114.7609 245.3705 13.14502313113113
ONEWEB-0641             
1 55805U 23029K   25175.55099783 -.00000011  00000+0 -59197-4 0  9993
2 55805  87.9212  16.0526 0002039  91.6685 268.4681 13.19725319111743
ONEWEB-0642             
1 55806U 23029L   25175.54624385  .00000001  00000+0 -29956-4 0  9993
2 55806  87.9215  16.0911 0002709  96.8675 263.2766 13.19727472111733
ONEWEB-0643             
1 55807U 23029M   25175.54274701 -.00000180  00000+0 -52045-3 0  9990
2 55807  87.9035   0.8913 0002594  90.5558 269.5869 13.14502134112409
ONEWEB-0644             
1 55808U 23029N   25175.54150914 -.00000050  00000+0 -15773-3 0  9993
2 55808  87.9222  16.0958 0002322  94.2765 265.8633 13.19724033111738
ONEWEB-0645             
1 55809U 23029P   25175.53756715 -.00000049  00000+0 -15591-3 0  9990
2 55809  87.9218  16.0925 0001888  98.4907 261.6440 13.19725500111738
ONEWEB-0646             
1 55810U 23029Q   25175.56757567  .00000016  00000+0  79975-5 0  9991
2 55810  87.9221  16.0800 0002091  88.9866 271.1506 13.19726563111729
ONEWEB-0648             
1 55811U 23029R   25175.51104744  .00000143  00000+0  35193-3 0  9993
2 55811  87.9039   0.8723 0002524 110.4675 249.6726 13.14504020112409
ONEWEB-0649             
1 55812U 23029S   25175.53044944  .00000029  00000+0  40880-4 0  9994
2 55812  87.9215  16.0761 0002144  99.2749 260.8627 13.19724067111753
ONEWEB-0650             
1 55813U 23029T   25175.52571876  .00000033  00000+0  49244-4 0  9991
2 55813  87.9218  16.0868 0001999  90.3635 269.7727 13.19724119111722
ONEWEB-0652             
1 55814U 23029U   25175.56812450  .00000139  00000+0  34095-3 0  9996
2 55814  87.9034   0.8713 0001659  86.1308 274.0011 13.14502514113075
ONEWEB-0653             
1 55815U 23029V   25175.55225673 -.00000056  00000+0 -18493-3 0  9995
2 55815  87.9035   0.8636 0001583  92.5952 267.5359 13.14502239112416
ONEWEB-0654             
1 55816U 23029W   25175.54749807 -.00000139  00000+0 -41050-3 0  9992
2 55816  87.9032   0.8647 0001489  81.9745 278.1553 13.14502585112433
ONEWEB-0656             
1 55817U 23029X   25175.40477381  .00000045  00000+0  79825-4 0  9999
2 55817  87.9266 345.6808 0001428  83.2730 276.8566 13.20772122113921
ONEWEB-0657             
1 55818U 23029Y   25175.52098648  .00000005  00000+0 -19068-4 0  9998
2 55818  87.9218  16.0925 0002094  66.0556 294.0796 13.19724142111734
ONEWEB-0658             
1 55819U 23029Z   25175.51624329  .00000069  00000+0  14028-3 0  9998
2 55819  87.9215  16.0268 0002287  92.9616 267.1779 13.19724467111744
ONEWEB-0660             
1 55820U 23029AA  25175.52530091 -.00000120  00000+0 -35723-3 0  9998
2 55820  87.9035   0.8401 0001876 102.6802 257.4538 13.14503045112417
ONEWEB-0661             
1 55821U 23029AB  25175.56019053  .00000020  00000+0  19738-4 0  9999
2 55821  87.9034   0.9044 0001749 102.2320 257.9006 13.14502711112404
ONEWEB-0662             
1 55822U 23029AC  25175.51898002  .00000137  00000+0  33479-3 0  9990
2 55822  87.9036   0.9195 0001940 101.9255 258.2093 13.14503772112442
ONEWEB-0663             
1 55823U 23029AD  25175.53697578  .00000003  00000+0 -24908-4 0  9999
2 55823  87.9264 345.7094 0002065 103.7476 256.3887 13.20839224113934
ONEWEB-0664             
1 55824U 23029AE  25175.54364156 -.00000053  00000+0 -16324-3 0  9992
2 55824  87.9266 345.7301 0001506 100.2734 259.8570 13.20770405113938
ONEWEB-0665             
1 55825U 23029AF  25175.55701842 -.00000029  00000+0 -11347-3 0  9994
2 55825  87.9032   0.8791 0001960  98.1832 261.9520 13.14501789112422
ONEWEB-0666             
1 55826U 23029AG  25175.23431561  .00000038  00000+0  61318-4 0  9990
2 55826  87.9262 345.7801 0001975  69.8229 290.3117 13.20773012113901
ONEWEB-0667             
1 55827U 23029AH  25175.53101408 -.00000036  00000+0 -12134-3 0  9999
2 55827  87.9264 345.6527 0001753  99.8062 260.3269 13.20772397113933
ONEWEB-0669             
1 55828U 23029AJ  25175.52629182 -.00000073  00000+0 -21251-3 0  9994
2 55828  87.9267 345.6894 0001194  82.9941 277.1328 13.20773058113939
ONEWEB-0670             
1 55829U 23029AK  25175.53481803 -.00000097  00000+0 -29712-3 0  9998
2 55829  87.9045   0.9029 0001598 103.4748 256.6560 13.14502170112440
ONEWEB-0671             
1 55830U 23029AL  25175.51149412 -.00000196  00000+0 -52163-3 0  9991
2 55830  87.9215  16.0873 0001752  94.5619 265.5714 13.19724975111729
ONEWEB-0672             
1 55831U 23029AM  25175.52156268  .00000002  00000+0 -27383-4 0  9992
2 55831  87.9267 345.6760 0001747  83.4496 276.6836 13.20771147113935
ONEWEB-0673             
1 55832U 23029AN  25175.63945649 -.00000061  00000+0 -18515-3 0  9996
2 55832  87.9231  16.0256 0001612  67.3307 292.7996 13.19713604112453
ONEWEB-0674             
1 55833U 23029AP  25174.74192487  .00000237  00000+0  60436-3 0  9994
2 55833  87.9034   1.0466 0001517 105.1155 255.0142 13.14501850112322
ONEWEB-0675             
1 55834U 23029AQ  25175.27615176  .00000052  00000+0  97223-4 0  9999
2 55834  87.9213  16.1462 0002010  79.7631 280.3728 13.19727515111715
ONEWEB-0720             
1 55835U 23029AR  25175.57153417  .00000104  00000+0  22827-3 0  9993
2 55835  87.9216  16.0840 0002106  97.9735 262.1637 13.19725231112363
ONEWEB-0537             
1 56046U 23043A   25175.32491664  .00000035  00000+0  58731-4 0  9993
2 56046  87.9053 300.0849 0001920  93.1541 266.9809 13.16593408111872
ONEWEB-0538             
1 56047U 23043B   25175.62256782  .00000008  00000+0 -12700-4 0  9994
2 56047  87.9046 300.0443 0002162  97.2227 262.9149 13.16593990112836
ONEWEB-0546             
1 56048U 23043C   25175.60989349  .00000027  00000+0  37375-4 0  9990
2 56048  87.9055 300.0211 0001707  77.9513 282.1809 13.16594613111915
ONEWEB-0547             
1 56049U 23043D   25175.81101916  .00000012  00000+0 -20626-5 0  9997
2 56049  87.9254 315.2565 0002074  98.3796 261.7573 13.21826978111925
ONEWEB-0548             
1 56050U 23043E   25175.71122967 -.00000095  00000+0 -28179-3 0  9998
2 56050  87.9041 300.0363 0001587 114.1792 245.9505 13.16594194112836
ONEWEB-0549             
1 56051U 23043F   25175.34817478  .00000089  00000+0  18337-3 0  9992
2 56051  87.9266 315.3598 0002277  99.0937 261.0454 13.21826910110957
ONEWEB-0550             
1 56052U 23043G   25175.10847428  .00000054  00000+0  99687-4 0  9995
2 56052  87.9262 315.4020 0001719  99.2676 260.8652 13.21826496110920
ONEWEB-0551             
1 56053U 23043H   25175.38156286 -.00000082  00000+0 -25088-3 0  9997
2 56053  87.9057 330.5669 0002055  99.5329 260.6034 13.15548871109350
ONEWEB-0552             
1 56054U 23043J   25175.85912328  .00000150  00000+0  33052-3 0  9991
2 56054  87.9243 315.2618 0002065 105.5737 254.5625 13.21824503111935
ONEWEB-0553             
1 56055U 23043K   25175.61623467  .00000007  00000+0 -16256-4 0  9999
2 56055  87.9045 300.0435 0001649  91.5559 268.5761 13.16593884111922
ONEWEB-0554             
1 56056U 23043L   25175.60356272 -.00000020  00000+0 -86804-4 0  9998
2 56056  87.9043 300.0743 0001692 106.6722 253.4595 13.16593101111909
